OBJECT_NAME,OBJECT_ID,EPOCH,MEAN_MOTION,ECCENTRICITY,INCLINATION,RA_OF_ASC_NODE,ARG_OF_PERICENTER,MEAN_ANOMALY,EPHEMERIS_TYPE,CLASSIFICATION_TYPE,NORAD_CAT_ID,ELEMENT_SET_NO,REV_AT_EPOCH,BSTAR,MEAN_MOTION_DOT,MEAN_MOTION_DDOT
LEMUR-2-ROUNDTRIPPER,2025-009DG,2026-07-16T19:58:47.358048,15.04247077,.0004504,97.7250,280.4761,60.8896,299.2781,0,U,62711,999,8208,.32528E-3,.4463E-4,0
LEMUR-2-MYNAMEISJEFF,2025-009DH,2026-07-16T19:56:37.510944,15.04238210,.0004219,97.7299,280.8736,93.9545,266.2163,0,U,62712,999,8208,.32714E-3,.4487E-4,0
LEMUR-2-LEIA-PHILIP,2025-052AN,2026-07-16T16:09:58.996800,14.97392156,.0005092,97.6801,89.1244,116.3264,243.8482,0,U,63246,999,7308,.80762E-5,.36E-6,0
LEMUR-2-LIA-MARTIN,2025-052AQ,2026-07-16T16:01:13.879200,14.98035935,.0005223,97.6862,89.6398,86.8570,273.3250,0,U,63248,999,7309,.14764E-3,.1687E-4,0
LEMUR-2-DELOITTE-1,2025-052BB,2026-07-16T20:22:02.534880,14.97790390,.000252,97.6884,90.1479,62.5836,297.5642,0,U,63259,999,7313,.20904E-3,.2397E-4,0
LEMUR-2-EMERSONROSE,2025-052BD,2026-07-16T15:51:45.226368,14.99298793,.0002631,97.6883,90.5797,58.2436,301.9043,0,U,63261,999,7315,.21243E-3,.2535E-4,0
LEMUR-2-MARACHE-FRAN,2025-052BE,2026-07-16T16:23:01.024800,15.00321089,.0005361,97.6829,90.9697,246.8465,113.2194,0,U,63262,999,7318,.14456E-3,.1753E-4,0
LEMUR-2-THEFALCONER,2025-052BG,2026-07-16T16:17:36.060576,14.97566592,.0000352,97.6825,89.5700,260.7632,99.3550,0,U,63264,999,7310,.94694E-4,.1048E-4,0
LEMUR-2-UNTITLED-SC,2025-061A,2026-07-16T20:07:35.789088,15.13651904,.001936,97.5657,172.9906,157.6117,202.5963,0,U,63351,999,7207,.9929E-4,.1725E-4,0
LEMUR-2-ESPERANZA,2025-061B,2026-07-16T19:31:54.761664,15.13758544,.0018969,97.5665,173.0666,156.9081,203.3007,0,U,63352,999,7207,.10219E-3,.1783E-4,0
LEMUR-2-KREMPEL-BRO2,2025-061C,2026-07-16T19:58:34.550976,15.14184756,.0020159,97.5708,173.6560,149.8101,210.4297,0,U,63353,999,7209,.10306E-3,.1822E-4,0
LEMUR-2-THERMORAPTOR,2025-061D,2026-07-16T19:30:27.069120,15.14268285,.0019895,97.5714,173.7181,148.7875,211.4543,0,U,63354,999,7209,.1216E-3,.2167E-4,0
LEMUR-2-NEUROSPICY,2025-061E,2026-07-16T20:21:30.845952,15.14386903,.0017662,97.5642,173.3566,151.4567,208.7635,0,U,63355,999,7210,.90535E-4,.16E-4,0
LEMUR-2-TILLINFINITY,2025-061F,2026-07-16T19:20:43.572768,15.14971595,.0019212,97.5627,173.6259,140.6361,219.6271,0,U,63356,999,7212,.12068E-3,.2193E-4,0
LEMUR-2-KREMPEL-BRO1,2025-061G,2026-07-16T20:23:05.758080,15.14778201,.0019837,97.5628,173.5767,141.8485,218.4155,0,U,63357,999,7212,.91841E-4,.1644E-4,0
LEMUR-2-LANGER2SPACE,2025-061H,2026-07-16T19:34:41.943072,15.14471707,.0017567,97.5633,173.3455,149.9074,210.3171,0,U,63358,999,7210,.12121E-3,.217E-4,0
LEMUR-2-BALTO,2025-052BH,2026-07-16T16:00:25.591104,15.00372103,.0005068,97.6925,90.9447,321.2397,38.8462,0,U,63395,999,7318,.2063E-3,.2531E-4,0
LEMUR-2-KRISH,2025-135AK,2026-07-16T18:21:51.179616,14.96454472,.0001205,97.7773,312.4454,98.2594,261.8764,0,U,64561,999,5834,.16263E-3,.1787E-4,0
LEMUR-2-HUBBLE-4,2025-135AP,2026-07-16T13:09:04.766112,14.93688184,.0002779,97.7721,311.1143,158.5821,201.5516,0,U,64565,999,5825,.70823E-4,.692E-5,0
LEMUR-2-SEJONG-2,2025-135BL,2026-07-16T20:27:42.189696,14.96919594,.0004073,97.7709,312.6775,210.8077,149.2906,0,U,64586,999,5838,.20503E-3,.2296E-4,0
LEMUR-2-HUBBLE-5,2025-135BT,2026-07-16T13:21:06.848064,14.94215597,.0004402,97.7741,311.7931,229.6726,130.4110,0,U,64840,999,5829,.50607E-4,.485E-5,0
LEMUR-2-KARENDARRELL,2025-135BU,2026-07-16T06:19:20.436672,15.00507703,.0012563,97.7720,313.4341,101.4569,258.8066,0,U,64841,999,5837,.30661E-3,.3809E-4,0
LEMUR-2-LUCILLE-ROSE,2025-135BV,2026-07-16T07:17:09.184992,15.00495624,.0015032,97.7711,313.5095,185.6878,174.4177,0,U,65403,999,5300,.25193E-3,.3119E-4,0
LEMUR-2-AFFIE-WAUWIE,2025-248C,2026-07-16T08:23:47.172192,15.28283546,.0008811,45.3891,316.8486,256.7086,103.2821,0,U,66295,999,3905,.44396E-3,.12188E-3,0
OTTER SDM,2025-276N,2026-07-16T03:36:52.500960,15.20063289,.00043382,97.4204,270.1502,249.3545,110.7225,0,U,66678,999,3481,.16749566E-3,.3546E-4,0
LEMUR-2-STAS-GORBUK,2025-276W,2026-07-16T15:11:49.472736,15.19667137,.0003676,97.4237,270.6765,240.8005,119.2863,0,U,66686,999,3488,.13791E-3,.2874E-4,0
LEMUR-2-TEODOR,2025-276DG,2026-07-16T15:36:34.808832,15.21346168,.0002197,97.4142,270.9672,87.4046,272.7441,0,U,66768,999,3492,.13461E-3,.2946E-4,0
LEMUR-2-LAILA,2025-276DQ,2026-07-16T14:52:46.990848,15.21572490,.0002923,97.4165,271.0766,92.4600,267.6970,0,U,66776,999,3492,.14121E-3,.3115E-4,0
LEMUR-2-CELIJO-SB-PK,2025-276DW,2026-07-16T15:39:08.631072,15.00293895,.0006898,97.5191,267.4570,60.8187,299.3727,0,U,66781,999,2704,.26434E-3,.3257E-4,0
LEMUR-2-FINNIAN,2025-276DX,2026-07-16T14:55:52.660128,15.00626976,.0007223,97.5353,267.6968,355.4152,4.7005,0,U,66782,999,2441,.11759E-3,.1429E-4,0
