LEMUR-2-ROUNDTRIPPER    
1 62711U 25009DG  26197.83249257  .00004463  00000+0  32528-3 0  9997
2 62711  97.7250 280.4761 0004504  60.8896 299.2781 15.04247077 82080
LEMUR-2-MYNAMEISJEFF    
1 62712U 25009DH  26197.83098971  .00004487  00000+0  32714-3 0  9996
2 62712  97.7299 280.8736 0004219  93.9545 266.2163 15.04238210 82088
LEMUR-2-LEIA-PHILIP     
1 63246U 25052AN  26197.67359950  .00000036  00000+0  80762-5 0  9990
2 63246  97.6801  89.1244 0005092 116.3264 243.8482 14.97392156 73087
LEMUR-2-LIA-MARTIN      
1 63248U 25052AQ  26197.66752175  .00001687  00000+0  14764-3 0  9997
2 63248  97.6862  89.6398 0005223  86.8570 273.3250 14.98035935 73090
LEMUR-2-DELOITTE-1      
1 63259U 25052BB  26197.84864045  .00002397  00000+0  20904-3 0  9991
2 63259  97.6884  90.1479 0002520  62.5836 297.5642 14.97790390 73136
LEMUR-2-EMERSONROSE     
1 63261U 25052BD  26197.66094012  .00002535  00000+0  21243-3 0  9994
2 63261  97.6883  90.5797 0002631  58.2436 301.9043 14.99298793 73155
LEMUR-2-MARACHE-FRAN    
1 63262U 25052BE  26197.68265075  .00001753  00000+0  14456-3 0  9995
2 63262  97.6829  90.9697 0005361 246.8465 113.2194 15.00321089 73181
LEMUR-2-THEFALCONER     
1 63264U 25052BG  26197.67888959  .00001048  00000+0  94694-4 0  9998
2 63264  97.6825  89.5700 0000352 260.7632  99.3550 14.97566592 73101
LEMUR-2-UNTITLED-SC     
1 63351U 25061A   26197.83860867  .00001725  00000+0  99290-4 0  9990
2 63351  97.5657 172.9906 0019360 157.6117 202.5963 15.13651904 72078
LEMUR-2-ESPERANZA       
1 63352U 25061B   26197.81382826  .00001783  00000+0  10219-3 0  9990
2 63352  97.5665 173.0666 0018969 156.9081 203.3007 15.13758544 72075
LEMUR-2-KREMPEL-BRO2    
1 63353U 25061C   26197.83234434  .00001822  00000+0  10306-3 0  9995
2 63353  97.5708 173.6560 0020159 149.8101 210.4297 15.14184756 72092
LEMUR-2-THERMORAPTOR    
1 63354U 25061D   26197.81281330  .00002167  00000+0  12160-3 0  9994
2 63354  97.5714 173.7181 0019895 148.7875 211.4543 15.14268285 72096
LEMUR-2-NEUROSPICY      
1 63355U 25061E   26197.84827368  .00001600  00000+0  90535-4 0  9999
2 63355  97.5642 173.3566 0017662 151.4567 208.7635 15.14386903 72100
LEMUR-2-TILLINFINITY    
1 63356U 25061F   26197.80605987  .00002193  00000+0  12068-3 0  9999
2 63356  97.5627 173.6259 0019212 140.6361 219.6271 15.14971595 72127
LEMUR-2-KREMPEL-BRO1    
1 63357U 25061G   26197.84937220  .00001644  00000+0  91841-4 0  9999
2 63357  97.5628 173.5767 0019837 141.8485 218.4155 15.14778201 72122
LEMUR-2-LANGER2SPACE    
1 63358U 25061H   26197.81576323  .00002170  00000+0  12121-3 0  9998
2 63358  97.5633 173.3455 0017567 149.9074 210.3171 15.14471707 72100
LEMUR-2-BALTO           
1 63395U 25052BH  26197.66696286  .00002531  00000+0  20630-3 0  9998
2 63395  97.6925  90.9447 0005068 321.2397  38.8462 15.00372103 73187
LEMUR-2-KRISH           
1 64561U 25135AK  26197.76517569  .00001787  00000+0  16263-3 0  9992
2 64561  97.7773 312.4454 0001205  98.2594 261.8764 14.96454472 58342
LEMUR-2-HUBBLE-4        
1 64565U 25135AP  26197.54797183  .00000692  00000+0  70823-4 0  9991
2 64565  97.7721 311.1143 0002779 158.5821 201.5516 14.93688184 58252
LEMUR-2-SEJONG-2        
1 64586U 25135BL  26197.85257164  .00002296  00000+0  20503-3 0  9999
2 64586  97.7709 312.6775 0004073 210.8077 149.2906 14.96919594 58382
LEMUR-2-HUBBLE-5        
1 64840U 25135BT  26197.55632926  .00000485  00000+0  50607-4 0  9999
2 64840  97.7741 311.7931 0004402 229.6726 130.4110 14.94215597 58299
LEMUR-2-KARENDARRELL    
1 64841U 25135BU  26197.26343098  .00003809  00000+0  30661-3 0  9997
2 64841  97.7720 313.4341 0012563 101.4569 258.8066 15.00507703 58375
LEMUR-2-LUCILLE-ROSE    
1 65403U 25135BV  26197.30357853  .00003119  00000+0  25193-3 0  9999
2 65403  97.7711 313.5095 0015032 185.6878 174.4177 15.00495624 53007
LEMUR-2-AFFIE-WAUWIE    
1 66295U 25248C   26197.34985153  .00012188  00000+0  44396-3 0  9990
2 66295  45.3891 316.8486 0008811 256.7086 103.2821 15.28283546 39056
OTTER SDM               
1 66678U 25276N   26197.15060765  .00003546  00000+0  16750-3 0  9999
2 66678  97.4204 270.1502 0004338 249.3545 110.7225 15.20063289 34818
LEMUR-2-STAS-GORBUK     
1 66686U 25276W   26197.63321149  .00002874  00000+0  13791-3 0  9992
2 66686  97.4237 270.6765 0003676 240.8005 119.2863 15.19667137 34889
LEMUR-2-TEODOR          
1 66768U 25276DG  26197.65040288  .00002946  00000+0  13461-3 0  9991
2 66768  97.4142 270.9672 0002197  87.4046 272.7441 15.21346168 34925
LEMUR-2-LAILA           
1 66776U 25276DQ  26197.61998832  .00003115  00000+0  14121-3 0  9996
2 66776  97.4165 271.0766 0002923  92.4600 267.6970 15.21572490 34923
LEMUR-2-CELIJO-SB-PK    
1 66781U 25276DW  26197.65218323  .00003257  00000+0  26434-3 0  9993
2 66781  97.5191 267.4570 0006898  60.8187 299.3727 15.00293895 27048
LEMUR-2-FINNIAN         
1 66782U 25276DX  26197.62213727  .00001429  00000+0  11759-3 0  9997
2 66782  97.5353 267.6968 0007223 355.4152   4.7005 15.00626976 24415
